start=new Date('2022-10-13T00:00:00.000Z').valueOf();
sats=[{"MEAN_MOTION_DDOT":"0.0000000000000","RCS_SIZE":"LARGE","TLE_LINE1":"1 52003U 22025AZ  22285.76478179  .00001246  00000-0  96342-4 0  9990","OBJECT_ID":"2022-025AZ","MEAN_ANOMALY":"277.3185","MEAN_ELEMENT_THEORY":"SGP4","REF_FRAME":"TEME","EPOCH":"2022-10-12T18:21:17.146656","GP_ID":"214922601","OBJECT_TYPE":"PAYLOAD","LAUNCH_DATE":"2022-03-09","PERIAPSIS":"538.979","SEMIMAJOR_AXIS":"6917.893","MEAN_MOTION":"15.08835785","OBJECT_NAME":"STARLINK-3654","ARG_OF_PERICENTER":"82.7935","EPHEMERIS_TYPE":"0","NORAD_CAT_ID":"52003","RA_OF_ASC_NODE":"203.3097","INCLINATION":"53.2190","REV_AT_EPOCH":"3313","TIME_SYSTEM":"UTC","ECCENTRICITY":"0.00011260","SITE":"AFETR","BSTAR":"0.00009634200000","TLE_LINE2":"2 52003  53.2190 203.3097 0001126  82.7935 277.3185 15.08835785 33133","ELEMENT_SET_NO":"999","CLASSIFICATION_TYPE":"U","FILE":"3606891","COUNTRY_CODE":"US","APOAPSIS":"540.537","DECAY_DATE":null,"PERIOD":"95.438","MEAN_MOTION_DOT":"0.00001246","CENTER_NAME":"EARTH"},{"BSTAR":"0.00016114000000","TLE_LINE2":"2 52088  53.1991 185.4482 0001022 105.8824 254.2311 15.77610052 34096","CLASSIFICATION_TYPE":"U","ELEMENT_SET_NO":"999","REV_AT_EPOCH":"3409","INCLINATION":"53.1991","SITE":"AFETR","ECCENTRICITY":"0.00010220","TIME_SYSTEM":"UTC","MEAN_MOTION_DOT":"0.00026848","PERIOD":"91.277","CENTER_NAME":"EARTH","COUNTRY_CODE":"US","FILE":"3606891","DECAY_DATE":null,"APOAPSIS":"337.903","EPOCH":"2022-10-12T19:48:25.214976","REF_FRAME":"TEME","OBJECT_TYPE":"PAYLOAD","GP_ID":"214924095","OBJECT_ID":"2022-029A","TLE_LINE1":"1 52088U 22029A   22285.82529184  .00026848  00000-0  16114-3 0  9990","RCS_SIZE":"LARGE","MEAN_MOTION_DDOT":"0.0000000000000","MEAN_ELEMENT_THEORY":"SGP4","MEAN_ANOMALY":"254.2311","ARG_OF_PERICENTER":"105.8824","OBJECT_NAME":"STARLINK-3537","RA_OF_ASC_NODE":"185.4482","NORAD_CAT_ID":"52088","EPHEMERIS_TYPE":"0","SEMIMAJOR_AXIS":"6715.351","PERIAPSIS":"336.530","LAUNCH_DATE":"2022-03-19","MEAN_MOTION":"15.77610052"},{"MEAN_ELEMENT_THEORY":"SGP4","MEAN_ANOMALY":"306.9085","TLE_LINE1":"1 52089U 22029B   22285.23945519 -.00000988  00000-0 -44017-4 0  9993","OBJECT_ID":"2022-029B","RCS_SIZE":"LARGE","MEAN_MOTION_DDOT":"0.0000000000000","OBJECT_TYPE":"PAYLOAD","GP_ID":"214882720","EPOCH":"2022-10-12T05:44:48.928416","REF_FRAME":"TEME","MEAN_MOTION":"15.08833929","SEMIMAJOR_AXIS":"6917.899","PERIAPSIS":"538.537","LAUNCH_DATE":"2022-03-19","RA_OF_ASC_NODE":"275.6628","NORAD_CAT_ID":"52089","EPHEMERIS_TYPE":"0","ARG_OF_PERICENTER":"53.2069","OBJECT_NAME":"STARLINK-3722","SITE":"AFETR","TIME_SYSTEM":"UTC","ECCENTRICITY":"0.00017730","REV_AT_EPOCH":"3278","INCLINATION":"53.2161","CLASSIFICATION_TYPE":"U","ELEMENT_SET_NO":"999","BSTAR":"-0.00004401700000","TLE_LINE2":"2 52089  53.2161 275.6628 0001773  53.2069 306.9085 15.08833929 32782","DECAY_DATE":null,"APOAPSIS":"540.990","COUNTRY_CODE":"US","FILE":"3606148","CENTER_NAME":"EARTH","MEAN_MOTION_DOT":"-0.00000988","PERIOD":"95.438"},{"FILE":"3606891","COUNTRY_CODE":"US","APOAPSIS":"540.904","DECAY_DATE":null,"PERIOD":"95.438","MEAN_MOTION_DOT":"0.00002308","CENTER_NAME":"EARTH","INCLINATION":"53.2153","REV_AT_EPOCH":"3285","ECCENTRICITY":"0.00016700","TIME_SYSTEM":"UTC","SITE":"AFETR","BSTAR":"0.00016305000000","TLE_LINE2":"2 52090  53.2153 273.6350 0001670  50.0250 310.0888 15.08838894 32859","ELEMENT_SET_NO":"999","CLASSIFICATION_TYPE":"U","LAUNCH_DATE":"2022-03-19","PERIAPSIS":"538.593","SEMIMAJOR_AXIS":"6917.884","MEAN_MOTION":"15.08838894","OBJECT_NAME":"STARLINK-3712","ARG_OF_PERICENTER":"50.0250","EPHEMERIS_TYPE":"0","NORAD_CAT_ID":"52090","RA_OF_ASC_NODE":"273.6350","MEAN_MOTION_DDOT":"0.0000000000000","RCS_SIZE":"LARGE","TLE_LINE1":"1 52090U 22029C   22285.69209177  .00002308  00000-0  16305-3 0  9992","OBJECT_ID":"2022-029C","MEAN_ANOMALY":"310.0888","MEAN_ELEMENT_THEORY":"SGP4","REF_FRAME":"TEME","EPOCH":"2022-10-12T16:36:36.728928","GP_ID":"214923109","OBJECT_TYPE":"PAYLOAD"},{"OBJECT_TYPE":"PAYLOAD","GP_ID":"214923354","EPOCH":"2022-10-12T16:47:12.686496","REF_FRAME":"TEME","MEAN_ELEMENT_THEORY":"SGP4","MEAN_ANOMALY":"327.1295","TLE_LINE1":"1 52091U 22029D   22285.69945239  .00000358  00000-0  40609-4 0  9997","OBJECT_ID":"2022-029D","RCS_SIZE":"LARGE","MEAN_MOTION_DDOT":"0.0000000000000","RA_OF_ASC_NODE":"273.6063","NORAD_CAT_ID":"52091","EPHEMERIS_TYPE":"0","ARG_OF_PERICENTER":"32.9853","OBJECT_NAME":"STARLINK-3713","MEAN_MOTION":"15.08836038","SEMIMAJOR_AXIS":"6917.892","PERIAPSIS":"538.020","LAUNCH_DATE":"2022-03-19","CLASSIFICATION_TYPE":"U","ELEMENT_SET_NO":"999","TLE_LINE2":"2 52091  53.2181 273.6063 0002511  32.9853 327.1295 15.08836038 32854","BSTAR":"0.00004060900000","SITE":"AFETR","ECCENTRICITY":"0.00025110","TIME_SYSTEM":"UTC","REV_AT_EPOCH":"3285","INCLINATION":"53.2181","CENTER_NAME":"EARTH","MEAN_MOTION_DOT":"0.00000358","PERIOD":"95.438","DECAY_DATE":null,"APOAPSIS":"541.495","COUNTRY_CODE":"US","FILE":"3606891"},{"CLASSIFICATION_TYPE":"U","ELEMENT_SET_NO":"999","TLE_LINE2":"2 52092  53.2173 273.6275 0002070  44.3086 315.8072 15.08837836 32850","BSTAR":"0.00001594600000","SITE":"AFETR","ECCENTRICITY":"0.00020700","TIME_SYSTEM":"UTC","REV_AT_EPOCH":"3285","INCLINATION":"53.2173","CENTER_NAME":"EARTH","MEAN_MOTION_DOT":"-0.00000034","PERIOD":"95.438","DECAY_DATE":null,"APOAPSIS":"541.184","COUNTRY_CODE":"US","FILE":"3606891","OBJECT_TYPE":"PAYLOAD","GP_ID":"214923595","EPOCH":"2022-10-12T16:41:55.445568","REF_FRAME":"TEME","MEAN_ELEMENT_THEORY":"SGP4","MEAN_ANOMALY":"315.8072","TLE_LINE1":"1 52092U 22029E   22285.69578062 -.00000034  00000-0  15946-4 0  9992","OBJECT_ID":"2022-029E","RCS_SIZE":"LARGE","MEAN_MOTION_DDOT":"0.0000000000000","RA_OF_ASC_NODE":"273.6275","NORAD_CAT_ID":"52092","EPHEMERIS_TYPE":"0","ARG_OF_PERICENTER":"44.3086","OBJECT_NAME":"STARLINK-3716","MEAN_MOTION":"15.08837836","SEMIMAJOR_AXIS":"6917.887","PERIAPSIS":"538.320","LAUNCH_DATE":"2022-03-19"},{"REF_FRAME":"TEME","EPOCH":"2022-10-12T16:26:01.066848","GP_ID":"214922860","OBJECT_TYPE":"PAYLOAD","MEAN_MOTION_DDOT":"0.0000000000000","RCS_SIZE":"LARGE","OBJECT_ID":"2022-029F","TLE_LINE1":"1 52093U 22029F   22285.68473457 -.00000156  00000-0  83012-5 0  9999","MEAN_ANOMALY":"306.4919","MEAN_ELEMENT_THEORY":"SGP4","OBJECT_NAME":"STARLINK-3673","ARG_OF_PERICENTER":"53.6231","EPHEMERIS_TYPE":"0","NORAD_CAT_ID":"52093","RA_OF_ASC_NODE":"273.6877","LAUNCH_DATE":"2022-03-19","PERIAPSIS":"538.576","SEMIMAJOR_AXIS":"6917.894","MEAN_MOTION":"15.08835454","TLE_LINE2":"2 52093  53.2157 273.6877 0001710  53.6231 306.4919 15.08835454 32856","BSTAR":"0.00000830120000","ELEMENT_SET_NO":"999","CLASSIFICATION_TYPE":"U","INCLINATION":"53.2157","REV_AT_EPOCH":"3285","ECCENTRICITY":"0.00017100","TIME_SYSTEM":"UTC","SITE":"AFETR","PERIOD":"95.438","MEAN_MOTION_DOT":"-0.00000156","CENTER_NAME":"EARTH","FILE":"3606891","COUNTRY_CODE":"US","APOAPSIS":"540.942","DECAY_DATE":null},{"SITE":"AFETR","ECCENTRICITY":"0.00018540","TIME_SYSTEM":"UTC","REV_AT_EPOCH":"3285","INCLINATION":"53.2191","CLASSIFICATION_TYPE":"U","ELEMENT_SET_NO":"999","BSTAR":"-0.00003625900000","TLE_LINE2":"2 52094  53.2191 273.6594 0001854  51.0685 309.0472 15.08837160 32854","DECAY_DATE":null,"APOAPSIS":"541.037","COUNTRY_CODE":"US","FILE":"3606891","CENTER_NAME":"EARTH","MEAN_MOTION_DOT":"-0.00000865","PERIOD":"95.438","MEAN_ELEMENT_THEORY":"SGP4","MEAN_ANOMALY":"309.0472","TLE_LINE1":"1 52094U 22029G   22285.68841322 -.00000865  00000-0 -36259-4 0  9998","OBJECT_ID":"2022-029G","RCS_SIZE":"LARGE","MEAN_MOTION_DDOT":"0.0000000000000","OBJECT_TYPE":"PAYLOAD","GP_ID":"214922609","EPOCH":"2022-10-12T16:31:18.902208","REF_FRAME":"TEME","MEAN_MOTION":"15.08837160","SEMIMAJOR_AXIS":"6917.889","PERIAPSIS":"538.471","LAUNCH_DATE":"2022-03-19","RA_OF_ASC_NODE":"273.6594","NORAD_CAT_ID":"52094","EPHEMERIS_TYPE":"0","ARG_OF_PERICENTER":"51.0685","OBJECT_NAME":"STARLINK-3714"},{"APOAPSIS":"541.240","DECAY_DATE":null,"FILE":"3606891","COUNTRY_CODE":"US","CENTER_NAME":"EARTH","PERIOD":"95.439","MEAN_MOTION_DOT":"0.00000535","ECCENTRICITY":"0.00020810","TIME_SYSTEM":"UTC","SITE":"AFETR","INCLINATION":"53.2153","REV_AT_EPOCH":"3285","ELEMENT_SET_NO":"999","CLASSIFICATION_TYPE":"U","TLE_LINE2":"2 52095  53.2153 273.7195 0002081  46.2907 313.8257 15.08822023 32853","BSTAR":"0.00005177100000","MEAN_MOTION":"15.08822023","LAUNCH_DATE":"2022-03-19","PERIAPSIS":"538.361","SEMIMAJOR_AXIS":"6917.935","EPHEMERIS_TYPE":"0","NORAD_CAT_ID":"52095","RA_OF_ASC_NODE":"273.7195","OBJECT_NAME":"STARLINK-3701","ARG_OF_PERICENTER":"46.2907","MEAN_ANOMALY":"313.8257","MEAN_ELEMENT_THEORY":"SGP4","MEAN_MOTION_DDOT":"0.0000000000000","RCS_SIZE":"LARGE","OBJECT_ID":"2022-029H","TLE_LINE1":"1 52095U 22029H   22285.67737674  .00000535  00000-0  51771-4 0  9990","GP_ID":"214923855","OBJECT_TYPE":"PAYLOAD","REF_FRAME":"TEME","EPOCH":"2022-10-12T16:15:25.350336"},{"EPHEMERIS_TYPE":"0","NORAD_CAT_ID":"52096","RA_OF_ASC_NODE":"263.7989","OBJECT_NAME":"STARLINK-3717","ARG_OF_PERICENTER":"41.9475","MEAN_MOTION":"15.08840051","LAUNCH_DATE":"2022-03-19","PERIAPSIS":"538.304","SEMIMAJOR_AXIS":"6917.880","GP_ID":"214924096","OBJECT_TYPE":"PAYLOAD","REF_FRAME":"TEME","EPOCH":"2022-10-12T15:44:56.640768","MEAN_ANOMALY":"318.1677","MEAN_ELEMENT_THEORY":"SGP4","MEAN_MOTION_DDOT":"0.0000000000000","RCS_SIZE":"LARGE","TLE_LINE1":"1 52096U 22029J   22285.65621112  .00000728  00000-0  63833-4 0  9994","OBJECT_ID":"2022-029J","CENTER_NAME":"EARTH","PERIOD":"95.438","MEAN_MOTION_DOT":"0.00000728","APOAPSIS":"541.187","DECAY_DATE":null,"FILE":"3606891","COUNTRY_CODE":"US","ELEMENT_SET_NO":"999","CLASSIFICATION_TYPE":"U","TLE_LINE2":"2 52096  53.2172 263.7989 0002084  41.9475 318.1677 15.08840051 32978","BSTAR":"0.00006383300000","ECCENTRICITY":"0.00020840","TIME_SYSTEM":"UTC","SITE":"AFETR","INCLINATION":"53.2172","REV_AT_EPOCH":"3297"}];
